COSMOS 2251 DEB         
1 33973U 93036FG  17345.93093628  .00000083  00000-0  32608-4 0  9990
2 33973  74.0071 144.6614 0048775 302.4394 176.9398 14.43044662464223
